NORAD_CAT_ID,OBJECT_NAME,OBJECT_TYPE,EPOCH,MEAN_MOTION,ECCENTRICITY,INCLINATION,RA_OF_ASC_NODE,ARG_OF_PERICENTER,MEAN_ANOMALY,BSTAR,MEAN_MOTION_DOT,MEAN_MOTION_DDOT,TLE_LINE0,TLE_LINE1,TLE_LINE2,SEMIMAJOR_AXIS,PERIOD,APOGEE,PERIGEE,DECAYED
53988.0,STARLINK-5113,PAYLOAD,2024-06-18 22:58:08,15.08836543,0.0001296,53.2156,156.7265,88.4647,271.6494,2.2463e-05,7e-07,0.0,0 STARLINK-5113,1 53988U 22125AA  24170.95704282  .00000070  00000-0  22463-4 0  9994,2 53988  53.2156 156.7265 0001296  88.4647 271.6494 15.08836543 94531,6917.891,95.438,540.653,538.859,0.0
53988.0,STARLINK-5113,PAYLOAD,2024-06-19 05:19:40,15.08837885,0.0001296,53.2156,155.5372,88.4546,271.6595,3.0718e-05,2.01e-06,0.0,0 STARLINK-5113,1 53988U 22125AA  24171.22200195  .00000201  00000-0  30718-4 0  9997,2 53988  53.2156 155.5372 0001296  88.4546 271.6595 15.08837885 94571,6917.887,95.438,540.648,538.855,0.0
53988.0,STARLINK-5113,PAYLOAD,2024-06-19 16:27:22,15.08840491,0.0001318,53.216,153.4563,87.1304,272.9839,4.7369e-05,4.66e-06,0.0,0 STARLINK-5113,1 53988U 22125AA  24171.68568004  .00000466  00000-0  47369-4 0  9996,2 53988  53.2160 153.4563 0001318  87.1304 272.9839 15.08840491 94727,6917.879,95.438,540.656,538.832,0.0
53988.0,STARLINK-5113,PAYLOAD,2024-06-20 08:21:13,15.08842273,0.0001387,53.2163,150.4822,92.2425,267.8726,8.7477e-05,1.105e-05,0.0,0 STARLINK-5113,1 53988U 22125AA  24172.34807775  .00001105  00000-0  87477-4 0  9996,2 53988  53.2163 150.4822 0001387  92.2425 267.8726 15.08842273 94742,6917.873,95.437,540.698,538.779,0.0
53988.0,STARLINK-5113,PAYLOAD,2024-06-21 05:01:14,15.08840129,0.0001422,53.2167,146.6153,95.78,264.3354,3.9508e-05,3.41e-06,0.0,0 STARLINK-5113,1 53988U 22125AA  24173.20920090  .00000341  00000-0  39508-4 0  9991,2 53988  53.2167 146.6153 0001422  95.7800 264.3354 15.08840129 94955,6917.88,95.438,540.729,538.761,0.0
53988.0,STARLINK-5113,PAYLOAD,2024-06-21 08:12:01,15.08840178,0.0001425,53.2167,146.0207,95.5904,264.5251,3.8892e-05,3.31e-06,0.0,0 STARLINK-5113,1 53988U 22125AA  24173.34168082  .00000331  00000-0  38892-4 0  9995,2 53988  53.2167 146.0207 0001425  95.5904 264.5251 15.08840178 94890,6917.88,95.438,540.731,538.759,0.0
53988.0,STARLINK-5113,PAYLOAD,2024-06-22 04:52:02,15.08831839,0.0001497,53.2175,142.1535,98.4285,261.6876,-3.8462e-05,-9e-06,0.0,0 STARLINK-5113,1 53988U 22125AA  24174.20281072 -.00000900  00000-0 -38462-4 0  9993,2 53988  53.2175 142.1535 0001497  98.4285 261.6876 15.08831839 95103,6917.905,95.438,540.806,538.735,0.0
53988.0,STARLINK-5113,PAYLOAD,2024-06-22 22:21:16,15.0883705,0.0001453,53.2174,138.8819,99.6736,260.442,5.2163e-05,5.42e-06,0.0,0 STARLINK-5113,1 53988U 22125AA  24174.93144615  .00000542  00000-0  52163-4 0  9998,2 53988  53.2174 138.8819 0001453  99.6736 260.4420 15.08837050 95131,6917.889,95.438,540.76,538.749,0.0
53988.0,STARLINK-5113,PAYLOAD,2024-06-23 03:07:26,15.08840061,0.0001448,53.2174,137.99,98.4496,261.666,7.4725e-05,9.01e-06,0.0,0 STARLINK-5113,1 53988U 22125AA  24175.13016401  .00000901  00000-0  74725-4 0  9999,2 53988  53.2174 137.9900 0001448  98.4496 261.6660 15.08840061 95243,6917.88,95.438,540.747,538.743,0.0
53988.0,STARLINK-5113,PAYLOAD,2024-06-23 06:18:12,15.08841764,0.0001464,53.2177,137.3955,97.8833,262.2326,8.6698e-05,1.092e-05,0.0,0 STARLINK-5113,1 53988U 22125AA  24175.26264268  .00001092  00000-0  86698-4 0  9993,2 53988  53.2177 137.3955 0001464  97.8833 262.2326 15.08841764 95186,6917.875,95.437,540.753,538.727,0.0
53988.0,STARLINK-5113,PAYLOAD,2024-06-24 04:33:37,15.08835109,0.0001358,53.2174,133.2404,83.8887,276.2259,6.0143e-05,6.69e-06,0.0,0 STARLINK-5113,1 53988U 22125AA  24176.19001162  .00000669  00000-0  60143-4 0  9994,2 53988  53.2174 133.2404 0001358  83.8887 276.2259 15.08835109 95404,6917.895,95.438,540.7,538.821,0.0
53988.0,STARLINK-5113,PAYLOAD,2024-06-24 06:08:59,15.08837834,0.0001328,53.2173,132.9391,93.3636,266.7508,8.1915e-05,1.016e-05,0.0,0 STARLINK-5113,1 53988U 22125AA  24176.25624813  .00001016  00000-0  81915-4 0  9992,2 53988  53.2173 132.9391 0001328  93.3636 266.7508 15.08837834 95339,6917.887,95.438,540.671,538.833,0.0
53988.0,STARLINK-5113,PAYLOAD,2024-06-25 04:24:24,15.08840695,0.0001581,53.2178,128.7769,77.23,282.8868,9.9419e-06,-1.3e-06,0.0,0 STARLINK-5113,1 53988U 22125AA  24177.18361212 -.00000130  00000-0  99419-5 0  9992,2 53988  53.2178 128.7769 0001581  77.2300 282.8868 15.08840695 95478,6917.878,95.438,540.837,538.65,0.0
53988.0,STARLINK-5113,PAYLOAD,2024-06-26 04:15:10,15.08847245,0.000159,53.2183,124.311,78.1447,281.9723,6.2353e-05,7.05e-06,0.0,0 STARLINK-5113,1 53988U 22125AA  24178.17720651  .00000705  00000-0  62353-4 0  9991,2 53988  53.2183 124.3110 0001590  78.1447 281.9723 15.08847245 95702,6917.858,95.437,540.823,538.623,0.0
53988.0,STARLINK-5113,PAYLOAD,2024-06-27 02:30:34,15.08843341,0.0001534,53.2179,120.1486,85.101,275.0157,1.8483e-05,6e-08,0.0,0 STARLINK-5113,1 53988U 22125AA  24179.10456931  .00000006  00000-0  18483-4 0  9991,2 53988  53.2179 120.1486 0001534  85.1010 275.0157 15.08843341 95842,6917.87,95.437,540.796,538.674,0.0
53988.0,STARLINK-5113,PAYLOAD,2024-06-27 13:38:16,15.08841924,0.0001448,53.2167,118.0714,88.4514,271.6644,3.9148e-05,3.35e-06,0.0,0 STARLINK-5113,1 53988U 22125AA  24179.56824988  .00000335  00000-0  39148-4 0  9998,2 53988  53.2167 118.0714 0001448  88.4514 271.6644 15.08841924 95835,6917.875,95.437,540.741,538.738,0.0
53988.0,STARLINK-5113,PAYLOAD,2024-06-28 02:21:21,15.08846569,0.0001352,53.2163,115.6911,94.2633,265.8514,1.52e-05,-4.6e-07,0.0,0 STARLINK-5113,1 53988U 22125AA  24180.09816698 -.00000046  00000-0  15200-4 0  9990,2 53988  53.2163 115.6911 0001352  94.2633 265.8514 15.08846569 95914,6917.86,95.437,540.661,538.79,0.0
53988.0,STARLINK-5113,PAYLOAD,2024-06-28 23:01:22,15.08821982,0.0001606,53.2166,111.8247,102.2953,257.8219,0.00031683,4.756e-05,0.0,0 STARLINK-5113,1 53988U 22125AA  24180.95928936  .00004756  00000-0  31683-3 0  9997,2 53988  53.2166 111.8247 0001606 102.2953 257.8219 15.08821982 96044,6917.935,95.439,540.911,538.689,0.0
53988.0,STARLINK-5113,PAYLOAD,2024-06-29 02:12:08,15.08848161,0.0001295,53.2158,111.2326,88.3205,271.7935,0.00011659,1.569e-05,0.0,0 STARLINK-5113,1 53988U 22125AA  24181.09176239  .00001569  00000-0  11659-3 0  9994,2 53988  53.2158 111.2326 0001295  88.3205 271.7935 15.08848161 96144,6917.855,95.437,540.616,538.825,0.0
53988.0,STARLINK-5113,PAYLOAD,2024-06-29 05:22:54,15.0885275,0.0001265,53.2154,110.6359,92.2988,267.8149,0.00016448,2.332e-05,0.0,0 STARLINK-5113,1 53988U 22125AA  24181.22423789  .00002332  00000-0  16448-3 0  9994,2 53988  53.2154 110.6359 0001265  92.2988 267.8149 15.08852750 96083,6917.841,95.437,540.582,538.831,0.0
53988.0,STARLINK-5113,PAYLOAD,2024-06-29 19:41:25,15.08817754,0.0001462,53.2169,107.9595,91.5594,268.5566,-0.00012834,-2.329e-05,0.0,0 STARLINK-5113,1 53988U 22125AA  24181.82043357 -.00002329  00000-0 -12834-3 0  9992,2 53988  53.2169 107.9595 0001462  91.5594 268.5566 15.08817754 96259,6917.948,95.439,540.825,538.802,0.0
53988.0,STARLINK-5113,PAYLOAD,2024-06-30 02:02:57,15.08823373,0.0001301,53.2164,106.7708,100.8735,259.2404,-7.0112e-05,-1.403e-05,0.0,0 STARLINK-5113,1 53988U 22125AA  24182.08539110 -.00001403  00000-0 -70112-4 0  9994,2 53988  53.2164 106.7708 0001301 100.8735 259.2404 15.08823373 96296,6917.931,95.439,540.696,538.896,0.0
53988.0,STARLINK-5113,PAYLOAD,2024-06-30 11:35:15,15.08836219,0.000132,53.2169,104.9861,102.7814,257.3326,3.8982e-05,3.33e-06,0.0,0 STARLINK-5113,1 53988U 22125AA  24182.48282258  .00000333  00000-0  38982-4 0  9994,2 53988  53.2169 104.9861 0001320 102.7814 257.3326 15.08836219 96274,6917.892,95.438,540.67,538.844,0.0
53988.0,STARLINK-5113,PAYLOAD,2024-06-30 17:56:48,15.08843512,0.0001167,53.2169,103.7953,90.3234,269.7892,5.2283e-06,-2.05e-06,0.0,0 STARLINK-5113,1 53988U 22125AA  24182.74778174 -.00000205  00000-0  52283-5 0  9990,2 53988  53.2169 103.7953 0001167  90.3234 269.7892 15.08843512 96392,6917.87,95.437,540.542,538.927,0.0
53988.0,STARLINK-5113,PAYLOAD,2024-06-30 22:42:57,15.08850686,0.0001221,53.2154,102.9047,99.7427,260.3703,0.00018858,2.716e-05,0.0,0 STARLINK-5113,1 53988U 22125AA  24182.94649569  .00002716  00000-0  18858-3 0  9993,2 53988  53.2154 102.9047 0001221  99.7427 260.3703 15.08850686 96342,6917.848,95.437,540.557,538.868,0.0
53988.0,STARLINK-5113,PAYLOAD,2024-07-01 03:29:06,15.08866318,0.0001298,53.216,102.0131,108.905,251.2083,0.0012246,0.00019269,0.0,0 STARLINK-5113,1 53988U 22125AA  24183.14521824  .00019269  00000-0  12246-2 0  9994,2 53988  53.2160 102.0131 0001298 108.9050 251.2083 15.08866318 96454,6917.8,95.436,540.563,538.767,0.0
53988.0,STARLINK-5113,PAYLOAD,2024-07-01 11:26:02,15.08862755,0.0001282,53.2155,100.5242,93.0705,267.0434,0.00058579,9.053e-05,0.0,0 STARLINK-5113,1 53988U 22125AA  24183.47641550  .00009053  00000-0  58579-3 0  9999,2 53988  53.2155 100.5242 0001282  93.0705 267.0434 15.08862755 96500,6917.811,95.436,540.563,538.789,0.0
53988.0,STARLINK-5113,PAYLOAD,2024-07-01 22:33:44,15.08850395,0.0001487,53.2156,98.445,94.2885,265.8277,0.00018195,2.61e-05,0.0,0 STARLINK-5113,1 53988U 22125AA  24183.94009683  .00002610  00000-0  18195-3 0  9998,2 53988  53.2156  98.4450 0001487  94.2885 265.8277 15.08850395 96492,6917.849,95.437,540.742,538.685,0.0
53988.0,STARLINK-5113,PAYLOAD,2024-07-02 03:19:53,15.08849046,0.0001173,53.216,97.5533,97.2311,262.8814,0.0015032,0.00023722,0.0,0 STARLINK-5113,1 53988U 22125AA  24184.13881661  .00023722  00000-0  15032-2 0  9997,2 53988  53.2160  97.5533 0001173  97.2311 262.8814 15.08849046 96606,6917.853,95.437,540.529,538.906,0.0
53988.0,STARLINK-5113,PAYLOAD,2024-07-02 11:16:49,15.08847201,0.00018,53.2158,96.0659,83.1814,276.9383,0.00099949,0.00015658,0.0,0 STARLINK-5113,1 53988U 22125AA  24184.47002080  .00015658  00000-0  99949-3 0  9993,2 53988  53.2158  96.0659 0001800  83.1814 276.9383 15.08847201 96658,6917.858,95.437,540.969,538.478,0.0
